NORAD_CAT_ID,OBJECT_NAME,OBJECT_TYPE,EPOCH,MEAN_MOTION,ECCENTRICITY,INCLINATION,RA_OF_ASC_NODE,ARG_OF_PERICENTER,MEAN_ANOMALY,BSTAR,MEAN_MOTION_DOT,MEAN_MOTION_DDOT,TLE_LINE0,TLE_LINE1,TLE_LINE2,SEMIMAJOR_AXIS,PERIOD,APOGEE,PERIGEE,DECAYED
50845.0,STARLINK-3230,PAYLOAD,2023-03-19 05:44:53,15.08863872,0.0001132,53.2181,16.3823,88.5456,271.5666,0.00075769,0.00011799,0.0,0 STARLINK-3230,1 50845U 22001AU  23078.23950675  .00011799  00000-0  75769-3 0  9998,2 50845  53.2181  16.3823 0001132  88.5456 271.5666 15.08863872 67486,6917.807,95.436,540.456,538.889,0.0
50845.0,STARLINK-3230,PAYLOAD,2023-03-19 20:03:22,15.08829745,0.0002341,53.2181,13.7053,102.9309,257.1944,0.00043819,6.691e-05,0.0,0 STARLINK-3230,1 50845U 22001AU  23078.83567742  .00006691  00000-0  43819-3 0  9999,2 50845  53.2181  13.7053 0002341 102.9309 257.1944 15.08829745 67573,6917.912,95.438,541.396,538.157,0.0
50845.0,STARLINK-3230,PAYLOAD,2023-03-20 05:35:41,15.08841794,0.0001271,53.2185,11.923,75.0627,285.0506,0.0015226,0.00024028,0.0,0 STARLINK-3230,1 50845U 22001AU  23079.23312078  .00024028  00000-0  15226-2 0  9998,2 50845  53.2185  11.9230 0001271  75.0627 285.0506 15.08841794 66401,6917.875,95.437,540.619,538.861,0.0
50845.0,STARLINK-3230,PAYLOAD,2023-03-20 23:04:55,15.08856944,0.0001379,53.2196,8.6537,84.3661,275.7489,0.00099428,0.00015579,0.0,0 STARLINK-3230,1 50845U 22001AU  23079.96175810  .00015579  00000-0  99428-3 0  9997,2 50845  53.2196   8.6537 0001379  84.3661 275.7489 15.08856944 67743,6917.829,95.436,540.648,538.74,0.0
50845.0,STARLINK-3230,PAYLOAD,2023-03-21 05:26:27,15.08881219,0.0001384,53.2187,7.4617,76.4892,283.6254,0.0015528,0.00024539,0.0,0 STARLINK-3230,1 50845U 22001AU  23080.22671012  .00024539  00000-0  15528-2 0  9997,2 50845  53.2187   7.4617 0001384  76.4892 283.6254 15.08881219 67788,6917.754,95.435,540.577,538.662,0.0
50845.0,STARLINK-3230,PAYLOAD,2023-03-21 21:20:19,15.08844818,9.38e-05,53.2198,4.4921,106.8967,253.2128,0.00053776,8.282e-05,0.0,0 STARLINK-3230,1 50845U 22001AU  23080.88911159  .00008282  00000-0  53776-3 0  9993,2 50845  53.2198   4.4921 0000938 106.8967 253.2128 15.08844818 66652,6917.866,95.437,540.38,539.082,0.0
50845.0,STARLINK-3230,PAYLOAD,2023-03-22 05:17:14,15.0886452,0.0001198,53.2181,3.0028,111.6691,248.4429,0.0016194,0.00025596,0.0,0 STARLINK-3230,1 50845U 22001AU  23081.22030716  .00025596  00000-0  16194-2 0  9992,2 50845  53.2181   3.0028 0001198 111.6691 248.4429 15.08864520 67938,6917.805,95.436,540.499,538.842,0.0
50845.0,STARLINK-3230,PAYLOAD,2023-03-22 21:11:06,15.08841857,0.0001487,53.2175,0.028,119.8204,240.2936,0.00083569,0.00013038,0.0,0 STARLINK-3230,1 50845U 22001AU  23081.88271265  .00013038  00000-0  83569-3 0  9999,2 50845  53.2175   0.0280 0001487 119.8204 240.2936 15.08841857 66805,6917.875,95.437,540.768,538.711,0.0
50845.0,STARLINK-3230,PAYLOAD,2023-03-23 03:32:38,15.08846087,0.0001136,53.217,358.839,100.9463,259.1657,0.0013709,0.00021601,0.0,0 STARLINK-3230,1 50845U 22001AU  23082.14767327  .00021601  00000-0  13709-2 0  9991,2 50845  53.2170 358.8390 0001136 100.9463 259.1657 15.08846087 68075,6917.862,95.437,540.513,538.941,0.0
50845.0,STARLINK-3230,PAYLOAD,2023-03-23 22:37:17,15.08851901,0.0001005,53.2167,355.2702,125.3626,234.746,0.0020415,0.00032363,0.0,0 STARLINK-3230,1 50845U 22001AU  23082.94255913  .00032363  00000-0  20415-2 0  9991,2 50845  53.2167 355.2702 0001005 125.3626 234.7460 15.08851901 66964,6917.844,95.437,540.404,539.014,0.0
50845.0,STARLINK-3230,PAYLOAD,2023-03-24 03:23:26,15.08935597,0.0001056,53.2169,354.3788,74.3688,285.7421,0.0075275,0.00121911,0.0,0 STARLINK-3230,1 50845U 22001AU  23083.14127604  .00121911  00000-0  75275-2 0  9991,2 50845  53.2169 354.3788 0001056  74.3688 285.7421 15.08935597 68225,6917.588,95.432,540.184,538.723,0.0
50845.0,STARLINK-3230,PAYLOAD,2023-03-24 22:28:03,15.0888447,0.0001417,53.2166,350.8104,72.4751,287.6396,0.0025815,0.00041087,0.0,0 STARLINK-3230,1 50845U 22001AU  23083.93615270  .00041087  00000-0  25815-2 0  9999,2 50845  53.2166 350.8104 0001417  72.4751 287.6396 15.08884470 67118,6917.744,95.435,540.59,538.629,0.0
50845.0,STARLINK-3230,PAYLOAD,2023-03-25 04:49:36,15.0883206,0.0001778,53.2168,349.6217,83.0572,277.0622,0.0017792,0.00028135,0.0,0 STARLINK-3230,1 50845U 22001AU  23084.20111560  .00028135  00000-0  17792-2 0  9997,2 50845  53.2168 349.6217 0001778  83.0572 277.0622 15.08832060 68383,6917.905,95.438,541.0,538.54,0.0
50845.0,STARLINK-3230,PAYLOAD,2023-03-25 20:43:28,15.08842094,0.0002117,53.2172,346.6471,102.1882,257.9347,0.0017558,0.00027768,0.0,0 STARLINK-3230,1 50845U 22001AU  23084.86352174  .00027768  00000-0  17558-2 0  9998,2 50845  53.2172 346.6471 0002117 102.1882 257.9347 15.08842094 68482,6917.874,95.437,541.204,538.274,0.0
50845.0,STARLINK-3230,PAYLOAD,2023-03-25 22:18:51,15.08847569,0.0001979,53.2172,346.3497,97.4015,262.7203,0.0018644,0.00029515,0.0,0 STARLINK-3230,1 50845U 22001AU  23084.92976171  .00029515  00000-0  18644-2 0  9993,2 50845  53.2172 346.3497 0001979  97.4015 262.7203 15.08847569 67268,6917.857,95.437,541.091,538.353,0.0
50845.0,STARLINK-3230,PAYLOAD,2023-03-26 01:29:37,15.08861546,0.0001836,53.2172,345.7555,90.3032,269.817,0.0025161,0.00040007,0.0,0 STARLINK-3230,1 50845U 22001AU  23085.06224098  .00040007  00000-0  25161-2 0  9994,2 50845  53.2172 345.7555 0001836  90.3032 269.8170 15.08861546 68510,6917.815,95.436,540.95,538.409,0.0
50845.0,STARLINK-3230,PAYLOAD,2023-03-26 20:34:15,15.08840152,0.0001578,53.2179,342.1872,94.0914,266.0259,0.0010552,0.00016545,0.0,0 STARLINK-3230,1 50845U 22001AU  23085.85712723  .00016545  00000-0  10552-2 0  9996,2 50845  53.2179 342.1872 0001578  94.0914 266.0259 15.08840152 68633,6917.88,95.438,540.837,538.653,0.0
50845.0,STARLINK-3230,PAYLOAD,2023-03-26 22:09:38,15.08844651,0.0001696,53.2175,341.8912,104.9467,255.1713,0.0014198,0.00022383,0.0,0 STARLINK-3230,1 50845U 22001AU  23085.92336737  .00022383  00000-0  14198-2 0  9998,2 50845  53.2175 341.8912 0001696 104.9467 255.1713 15.08844651 67412,6917.866,95.437,540.904,538.558,0.0
50845.0,STARLINK-3230,PAYLOAD,2023-03-26 23:45:02,15.08842195,0.0001673,53.2171,341.5938,102.7199,257.398,0.0012329,0.00019389,0.0,0 STARLINK-3230,1 50845U 22001AU  23085.98960783  .00019389  00000-0  12329-2 0  9994,2 50845  53.2171 341.5938 0001673 102.7199 257.3980 15.08842195 67428,6917.874,95.437,540.896,538.581,0.0
50845.0,STARLINK-3230,PAYLOAD,2023-03-27 22:00:25,15.0885227,0.000168,53.2175,337.4305,104.8467,255.2711,0.00065576,0.00010167,0.0,0 STARLINK-3230,1 50845U 22001AU  23086.91696539  .00010167  00000-0  65576-3 0  9991,2 50845  53.2175 337.4305 0001680 104.8467 255.2711 15.08852270 68798,6917.843,95.437,540.87,538.546,0.0
50845.0,STARLINK-3230,PAYLOAD,2023-03-27 23:35:48,15.08856788,0.000173,53.2176,337.1331,105.3531,254.7653,0.0007267,0.00011302,0.0,0 STARLINK-3230,1 50845U 22001AU  23086.98320384  .00011302  00000-0  72670-3 0  9995,2 50845  53.2176 337.1331 0001730 105.3531 254.7653 15.08856788 67571,6917.829,95.436,540.891,538.497,0.0
50845.0,STARLINK-3230,PAYLOAD,2023-03-28 17:05:03,15.08850477,0.0001721,53.218,333.8635,94.1841,265.9348,0.00035534,5.373e-05,0.0,0 STARLINK-3230,1 50845U 22001AU  23087.71184351  .00005373  00000-0  35534-3 0  9998,2 50845  53.2180 333.8635 0001721  94.1841 265.9348 15.08850477 68918,6917.848,95.437,540.904,538.523,0.0
50845.0,STARLINK-3230,PAYLOAD,2023-03-28 21:51:12,15.0885012,0.0001914,53.218,332.9717,114.0598,246.0595,0.0002847,4.247e-05,0.0,0 STARLINK-3230,1 50845U 22001AU  23087.91056180  .00004247  00000-0  28470-3 0  9998,2 50845  53.2180 332.9717 0001914 114.0598 246.0595 15.08850120 67710,6917.849,95.437,541.039,538.39,0.0
50845.0,STARLINK-3230,PAYLOAD,2023-03-29 02:37:21,15.08856063,0.0001861,53.2179,332.0788,119.0922,241.0256,0.00042857,6.542e-05,0.0,0 STARLINK-3230,1 50845U 22001AU  23088.10927835  .00006542  00000-0  42857-3 0  9999,2 50845  53.2179 332.0788 0001861 119.0922 241.0256 15.08856063 67748,6917.831,95.437,540.984,538.409,0.0
50845.0,STARLINK-3230,PAYLOAD,2023-03-29 20:06:36,15.08839871,0.0001428,53.2174,328.8045,109.0676,251.0471,0.00019125,2.757e-05,0.0,0 STARLINK-3230,1 50845U 22001AU  23088.83792233  .00002757  00000-0  19125-3 0  9997,2 50845  53.2174 328.8045 0001428 109.0676 251.0471 15.08839871 67856,6917.881,95.438,540.734,538.758,0.0
50845.0,STARLINK-3230,PAYLOAD,2023-03-29 21:41:59,15.08842019,0.0001717,53.2174,328.5079,93.4788,266.6401,0.0003071,4.603e-05,0.0,0 STARLINK-3230,1 50845U 22001AU  23088.90416355  .00004603  00000-0  30710-3 0  9998,2 50845  53.2174 328.5079 0001717  93.4788 266.6401 15.08842019 69092,6917.874,95.437,540.927,538.551,0.0
50845.0,STARLINK-3230,PAYLOAD,2023-03-30 00:52:45,15.08855443,0.0001734,53.2178,327.9138,96.5188,263.6001,0.00079869,0.00012451,0.0,0 STARLINK-3230,1 50845U 22001AU  23089.03664117  .00012451  00000-0  79869-3 0  9992,2 50845  53.2178 327.9138 0001734  96.5188 263.6001 15.08855443 69113,6917.833,95.437,540.898,538.499,0.0
50845.0,STARLINK-3230,PAYLOAD,2023-03-31 00:43:32,15.08862253,0.000128,53.2173,323.4513,119.1677,240.9443,0.0016948,0.00026804,0.0,0 STARLINK-3230,1 50845U 22001AU  23090.03023927  .00026804  00000-0  16948-2 0  9997,2 50845  53.2173 323.4513 0001280 119.1677 240.9443 15.08862253 69268,6917.812,95.436,540.563,538.792,0.0
50845.0,STARLINK-3230,PAYLOAD,2023-03-31 15:02:01,15.08831077,0.0001347,53.2167,320.7772,114.3327,245.7806,0.0014302,0.00022541,0.0,0 STARLINK-3230,1 50845U 22001AU  23090.62640619  .00022541  00000-0  14302-2 0  9991,2 50845  53.2167 320.7772 0001347 114.3327 245.7806 15.08831077 69357,6917.908,95.438,540.705,538.841,0.0
50845.0,STARLINK-3230,PAYLOAD,2023-04-01 14:52:49,15.08826415,0.0001165,53.2171,316.317,80.3625,279.7498,0.00066662,0.00010333,0.0,0 STARLINK-3230,1 50845U 22001AU  23091.62001692  .00010333  00000-0  66662-3 0  9997,2 50845  53.2171 316.3170 0001165  80.3625 279.7498 15.08826415 69507,6917.922,95.438,540.593,538.981,0.0
